[
    {
        "Altitude(m)": 622205.8773783332,
        "Argument of Periapsis(deg)": 0.0,
        "Eccentricity": 0.0,
        "Inclination(deg)": 60.0,
        "Latitude(deg)": -52.16246270483142,
        "Longitude(deg)": -157.29971914349613,
        "Mean Anomaly(deg)": 245.4545,
        "RAAN(deg)": 75.0,
        "Satellite Name": "Test1 345",
        "Satellite Number": 345,
        "Semi-Major Axis(m)": 6980739.136638005,
        "Time(s)": 0
    },
    {
        "Altitude(m)": 622344.7843231369,
        "Argument of Periapsis(deg)": 0.00010418945913296404,
        "Eccentricity": 0.0,
        "Inclination(deg)": 60.0,
        "Latitude(deg)": -52.52004350317745,
        "Longitude(deg)": -156.51850775952175,
        "Mean Anomaly(deg)": 246.07460614546184,
        "RAAN(deg)": 74.99957995086027,
        "Satellite Name": "Test1 345",
        "Satellite Number": 345,
        "Semi-Major Axis(m)": 6980739.136638005,
        "Time(s)": 10
    }
]